[{"OBJECT_NAME":"STARLINK-35115","OBJECT_ID":"2025-211P","EPOCH":"2026-03-09T16:32:13.175232","MEAN_MOTION":15.05661545,"ECCENTRICITY":0.00011083,"INCLINATION":97.6026,"RA_OF_ASC_NODE":114.0949,"ARG_OF_PERICENTER":127.5347,"MEAN_ANOMALY":232.5981,"EPHEMERIS_TYPE":0,"CLASSIFICATION_TYPE":"U","NORAD_CAT_ID":65665,"ELEMENT_SET_NO":999,"REV_AT_EPOCH":2704,"BSTAR":0.00031925082,"MEAN_MOTION_DOT":4.55e-5,"MEAN_MOTION_DDOT":0},{"OBJECT_NAME":"OBJECT Z","OBJECT_ID":"2017-042Z","EPOCH":"2026-03-09T21:17:53.130336","MEAN_MOTION":15.06776019,"ECCENTRICITY":0.00062541,"INCLINATION":97.3821,"RA_OF_ASC_NODE":235.9429,"ARG_OF_PERICENTER":50.1524,"MEAN_ANOMALY":310.0253,"EPHEMERIS_TYPE":0,"CLASSIFICATION_TYPE":"U","NORAD_CAT_ID":42848,"ELEMENT_SET_NO":999,"REV_AT_EPOCH":47228,"BSTAR":0.00039314781,"MEAN_MOTION_DOT":5.795e-5,"MEAN_MOTION_DDOT":0}]
